NORAD_CAT_ID,OBJECT_NAME,OBJECT_TYPE,EPOCH,MEAN_MOTION,ECCENTRICITY,INCLINATION,RA_OF_ASC_NODE,ARG_OF_PERICENTER,MEAN_ANOMALY,BSTAR,MEAN_MOTION_DOT,MEAN_MOTION_DDOT,TLE_LINE0,TLE_LINE1,TLE_LINE2,SEMIMAJOR_AXIS,PERIOD,APOGEE,PERIGEE,DECAYED
52842.0,STARLINK-4046,PAYLOAD,2022-11-18 12:35:42,15.08844534,0.0002687,53.2169,53.3088,37.0853,323.0324,0.00035181,5.316e-05,0.0,0 STARLINK-4046,1 52842U 22062N   22322.52479488  .00005316  00000-0  35181-3 0  9997,2 52842  53.2169  53.3088 0002687  37.0853 323.0324 15.08844534 24033,6917.8669999999975,95.437,541.59,537.873,0.0
52842.0,STARLINK-4046,PAYLOAD,2022-11-19 06:04:56,15.08846569,0.0002708,53.2169,50.0373,38.8544,321.2642,0.00020439,2.967e-05,0.0,0 STARLINK-4046,1 52842U 22062N   22323.25343264  .00002967  00000-0  20439-3 0  9999,2 52842  53.2169  50.0373 0002708  38.8544 321.2642 15.08846569 23654,6917.86,95.437,541.599,537.852,0.0
52842.0,STARLINK-4046,PAYLOAD,2022-11-20 12:17:16,15.08837246,0.0002701,53.2176,44.3878,32.7182,327.3977,-4.2954e-05,-9.72e-06,0.0,0 STARLINK-4046,1 52842U 22062N   22324.51199298 -.00000972  00000-0 -42954-4 0  9998,2 52842  53.2176  44.3878 0002701  32.7182 327.3977 15.08837246 24338,6917.889,95.438,541.622,537.885,0.0
52842.0,STARLINK-4046,PAYLOAD,2022-11-20 15:28:02,15.08834597,0.000263,53.2183,43.7939,32.586,327.5294,-1.4868e-05,-5.25e-06,0.0,0 STARLINK-4046,1 52842U 22062N   22324.64447748 -.00000525  00000-0 -14868-4 0  9995,2 52842  53.2183  43.7939 0002630  32.5860 327.5294 15.08834597 23866,6917.897,95.438,541.581,537.942,0.0
52842.0,STARLINK-4046,PAYLOAD,2022-11-21 10:32:40,15.08839282,0.0002688,53.2186,40.2259,31.4852,328.63,7.0609e-05,8.35e-06,0.0,0 STARLINK-4046,1 52842U 22062N   22325.43935262  .00000835  00000-0  70609-4 0  9993,2 52842  53.2186  40.2259 0002688  31.4852 328.6300 15.08839282 23987,6917.8830000000025,95.438,541.607,537.888,0.0
52842.0,STARLINK-4046,PAYLOAD,2022-11-21 16:54:12,15.08837135,0.0002659,53.2183,39.0364,31.7749,328.3403,-1.8362e-05,-5.81e-06,0.0,0 STARLINK-4046,1 52842U 22062N   22325.70431654 -.00000581  00000-0 -18362-4 0  9997,2 52842  53.2183  39.0364 0002659  31.7749 328.3403 15.08837135 24519,6917.889,95.438,541.594,537.915,0.0
52842.0,STARLINK-4046,PAYLOAD,2022-11-22 10:23:27,15.08838632,0.0002667,53.2181,35.7658,29.3364,330.7777,0.00018788,2.703e-05,0.0,0 STARLINK-4046,1 52842U 22062N   22326.43295144  .00002703  00000-0  18788-3 0  9997,2 52842  53.2181  35.7658 0002667  29.3364 330.7777 15.08838632 24133,6917.885,95.438,541.595,537.905,0.0
52842.0,STARLINK-4046,PAYLOAD,2022-11-22 15:09:36,15.08833972,0.0002847,53.2185,34.8736,29.0951,331.02,0.00011962,1.616e-05,0.0,0 STARLINK-4046,1 52842U 22062N   22326.63167783  .00001616  00000-0  11962-3 0  9995,2 52842  53.2185  34.8736 0002847  29.0951 331.0200 15.08833972 24163,6917.899,95.438,541.7330000000002,537.794,0.0
52842.0,STARLINK-4046,PAYLOAD,2022-11-23 10:14:14,15.0883351,0.0002717,53.2185,31.3044,27.2382,332.8753,2.478300000000001e-05,1.06e-06,0.0,0 STARLINK-4046,1 52842U 22062N   22327.42656236  .00000106  00000-0  24783-4 0  9998,2 52842  53.2185  31.3044 0002717  27.2382 332.8753 15.08833510 24284,6917.9,95.438,541.645,537.886,0.0
52842.0,STARLINK-4046,PAYLOAD,2022-11-23 13:25:01,15.08831335,0.0002664,53.2181,30.7094,26.2572,333.8555,5.793500000000001e-06,-1.96e-06,0.0,0 STARLINK-4046,1 52842U 22062N   22327.55904435 -.00000196  00000-0  57935-5 0  9995,2 52842  53.2181  30.7094 0002664  26.2572 333.8555 15.08831335 24799,6917.906999999997,95.438,541.615,537.929,0.0
52842.0,STARLINK-4046,PAYLOAD,2022-11-23 16:35:47,15.08832132,0.0002605,53.2186,30.1152,28.0326,332.0806,3.8334e-05,3.22e-06,0.0,0 STARLINK-4046,1 52842U 22062N   22327.69152396  .00000322  00000-0  38334-4 0  9992,2 52842  53.2186  30.1152 0002605  28.0326 332.0806 15.08832132 24320,6917.904,95.438,541.572,537.967,0.0
52842.0,STARLINK-4046,PAYLOAD,2022-11-24 10:05:01,15.0884649,0.0002701,53.2181,26.8444,30.8121,329.30300000000005,4.9918e-05,5.06e-06,0.0,0 STARLINK-4046,1 52842U 22062N   22328.42015675  .00000506  00000-0  49918-4 0  9996,2 52842  53.2181  26.8444 0002701  30.8121 329.3030 15.08846490 24434,6917.861,95.437,541.594,537.857,0.0
52842.0,STARLINK-4046,PAYLOAD,2022-11-24 13:15:47,15.08839329,0.0002691,53.2182,26.2494,32.9492,327.1667,0.00022484,3.292e-05,0.0,0 STARLINK-4046,1 52842U 22062N   22328.55263704  .00003292  00000-0  22484-3 0  9991,2 52842  53.2182  26.2494 0002691  32.9492 327.1667 15.08839329 24947,6917.882,95.438,541.609,537.886,0.0
52842.0,STARLINK-4046,PAYLOAD,2022-11-24 21:12:42,15.08848281,0.0002709,53.2185,24.7627,28.9861,331.1281,0.00018955,2.730000000000001e-05,0.0,0 STARLINK-4046,1 52842U 22062N   22328.88383101  .00002730  00000-0  18955-3 0  9995,2 52842  53.2185  24.7627 0002709  28.9861 331.1281 15.08848281 24502,6917.855,95.437,541.594,537.846,0.0
52842.0,STARLINK-4046,PAYLOAD,2022-11-25 09:55:48,15.08838344,0.0002695,53.2185,22.3841,31.1945,328.9207,0.00013666,1.887e-05,0.0,0 STARLINK-4046,1 52842U 22062N   22329.41375877  .00001887  00000-0  13666-3 0  9992,2 52842  53.2185  22.3841 0002695  31.1945 328.9207 15.08838344 24586,6917.885,95.438,541.615,537.886,0.0
52842.0,STARLINK-4046,PAYLOAD,2022-11-25 13:06:34,15.08843314,0.000273,53.2186,21.7895,31.2894,328.826,0.00017937,2.568e-05,0.0,0 STARLINK-4046,1 52842U 22062N   22329.54623620  .00002568  00000-0  17937-3 0  9990,2 52842  53.2186  21.7895 0002730  31.2894 328.8260 15.08843314 24607,6917.87,95.437,541.624,537.847,0.0
52842.0,STARLINK-4046,PAYLOAD,2022-11-26 00:14:16,15.08853008,0.000285,53.2187,19.7084,31.6396,328.4767,0.00020294,2.944e-05,0.0,0 STARLINK-4046,1 52842U 22062N   22330.00990852  .00002944  00000-0  20294-3 0  9995,2 52842  53.2187  19.7084 0002850  31.6396 328.4767 15.08853008 25160,6917.840999999999,95.437,541.677,537.734,0.0
52842.0,STARLINK-4046,PAYLOAD,2022-11-26 12:57:21,15.08853431,0.0002779,53.2182,17.3285,30.3691,329.7462,9.7625e-05,1.266e-05,0.0,0 STARLINK-4046,1 52842U 22062N   22330.53982667  .00001266  00000-0  97625-4 0  9997,2 52842  53.2182  17.3285 0002779  30.3691 329.7462 15.08853431 24756,6917.839,95.437,541.627,537.7819999999998,0.0
52842.0,STARLINK-4046,PAYLOAD,2022-11-26 20:54:16,15.08854674,0.000281,53.2182,15.8416,30.0837,330.0316,7.817e-05,9.56e-06,0.0,0 STARLINK-4046,1 52842U 22062N   22330.87102376  .00000956  00000-0  78170-4 0  9994,2 52842  53.2182  15.8416 0002810  30.0837 330.0316 15.08854674 24809,6917.8359999999975,95.437,541.644,537.757,0.0
52842.0,STARLINK-4046,PAYLOAD,2022-11-27 03:15:49,15.08845972,0.0002836,53.2173,14.653,32.5221,327.5945,8.6881e-05,1.095e-05,0.0,0 STARLINK-4046,1 52842U 22062N   22331.13598801  .00001095  00000-0  86881-4 0  9999,2 52842  53.2173  14.6530 0002836  32.5221 327.5945 15.08845972 25334,6917.861999999999,95.437,541.689,537.765,0.0
52842.0,STARLINK-4046,PAYLOAD,2022-11-27 09:37:22,15.08839061,0.0002897,53.2183,13.4636,32.0063,328.1105,-2.4522e-05,-6.79e-06,0.0,0 STARLINK-4046,1 52842U 22062N   22331.40095378 -.00000679  00000-0 -24522-4 0  9993,2 52842  53.2183  13.4636 0002897  32.0063 328.1105 15.08839061 25376,6917.8830000000025,95.438,541.752,537.744,0.0
52842.0,STARLINK-4046,PAYLOAD,2022-11-27 12:48:08,15.0883531,0.0002833999999999,53.219,12.869000000000002,29.6904,330.4248,-3.8653e-05,-9.04e-06,0.0,0 STARLINK-4046,1 52842U 22062N   22331.53343596 -.00000904  00000-0 -38653-4 0  9996,2 52842  53.2190  12.8690 0002834  29.6904 330.4248 15.08835310 24909,6917.895,95.438,541.72,537.799,0.0
52842.0,STARLINK-4046,PAYLOAD,2022-11-28 12:38:56,15.08832969,0.000286,53.2195,8.4103,27.5983,332.5161,-2.3583e-05,-6.64e-06,0.0,0 STARLINK-4046,1 52842U 22062N   22332.52703911 -.00000664  00000-0 -23583-4 0  9996,2 52842  53.2195   8.4103 0002860  27.5983 332.5161 15.08832969 25542,6917.901999999999,95.438,541.745,537.788,0.0
52842.0,STARLINK-4046,PAYLOAD,2022-11-28 19:00:28,15.08841769,0.0002929,53.2197,7.221,29.2696,330.846,-5.4538e-05,-1.157e-05,0.0,0 STARLINK-4046,1 52842U 22062N   22332.79199490 -.00001157  00000-0 -54538-4 0  9998,2 52842  53.2197   7.2210 0002929  29.2696 330.8460 15.08841769 25581,6917.875,95.437,541.766,537.714,0.0
52842.0,STARLINK-4046,PAYLOAD,2022-11-29 10:54:20,15.08827972,0.0002946,53.2185,4.2453,26.9137,333.2007,5.1329e-05,5.28e-06,0.0,0 STARLINK-4046,1 52842U 22062N   22333.45440206  .00000528  00000-0  51329-4 0  9990,2 52842  53.2185   4.2453 0002946  26.9137 333.2007 15.08827972 25198,6917.917,95.438,541.82,537.744,0.0
52842.0,STARLINK-4046,PAYLOAD,2022-11-29 18:51:15,15.08835061,0.0002963,53.2187,2.7585,27.562,332.5528,7.979100000000001e-05,9.81e-06,0.0,0 STARLINK-4046,1 52842U 22062N   22333.78559886  .00000981  00000-0  79791-4 0  9997,2 52842  53.2187   2.7585 0002963  27.5620 332.5528 15.08835061 25246,6917.895,95.438,541.81,537.711,0.0
52842.0,STARLINK-4046,PAYLOAD,2022-11-30 09:09:44,15.08828564,0.0002757,53.2198,0.083,30.6387,329.4765,2.3662e-05,8.8e-07,0.0,0 STARLINK-4046,1 52842U 22062N   22334.38176842  .00000088  00000-0  23662-4 0  9995,2 52842  53.2198   0.0830 0002757  30.6387 329.4765 15.08828564 25820,6917.915,95.438,541.688,537.873,0.0
52842.0,STARLINK-4046,PAYLOAD,2022-11-30 12:20:31,15.08828149,0.0002865,53.219,359.4874,29.8468,330.2687,3.3846e-05,2.5e-06,0.0,0 STARLINK-4046,1 52842U 22062N   22334.51424936  .00000250  00000-0  33846-4 0  9996,2 52842  53.2190 359.4874 0002865  29.8468 330.2687 15.08828149 25351,6917.917,95.438,541.764,537.8,0.0
52842.0,STARLINK-4046,PAYLOAD,2022-12-01 01:03:35,15.08842479,0.0002911,53.2193,357.1094,28.1768,331.9381,8.5932e-05,1.079e-05,0.0,0 STARLINK-4046,1 52842U 22062N   22335.04416001  .00001079  00000-0  85932-4 0  9992,2 52842  53.2193 357.1094 0002911  28.1768 331.9381 15.08842479 25924,6917.873000000001,95.437,541.752,537.724,0.0
